[{"OBJECT_NAME":"STARLINK-3784","OBJECT_ID":"2022-041Q","EPOCH":"2026-03-09T19:33:33.344928","MEAN_MOTION":15.08837987,"ECCENTRICITY":0.00015972,"INCLINATION":53.2196,"RA_OF_ASC_NODE":108.5594,"ARG_OF_PERICENTER":90.9791,"MEAN_ANOMALY":269.1385,"EPHEMERIS_TYPE":0,"CLASSIFICATION_TYPE":"U","NORAD_CAT_ID":52275,"ELEMENT_SET_NO":999,"REV_AT_EPOCH":21438,"BSTAR":-1.6358638e-5,"MEAN_MOTION_DOT":-5.48e-6,"MEAN_MOTION_DDOT":0},{"OBJECT_NAME":"CZ-4B DEB","OBJECT_ID":"2004-035K","EPOCH":"2026-03-08T06:51:30.377664","MEAN_MOTION":15.09293825,"ECCENTRICITY":0.00031468,"INCLINATION":97.5843,"RA_OF_ASC_NODE":91.2716,"ARG_OF_PERICENTER":107.6302,"MEAN_ANOMALY":252.527,"EPHEMERIS_TYPE":0,"CLASSIFICATION_TYPE":"U","NORAD_CAT_ID":29043,"ELEMENT_SET_NO":999,"REV_AT_EPOCH":10418,"BSTAR":0.00031897975,"MEAN_MOTION_DOT":5.021e-5,"MEAN_MOTION_DDOT":0}]
